      2.10          N: GNSS NAV DATA                        RINEX VERSION / TYPE
fic2rin                                 09/23/2019 00:19:43 PGM / RUN BY / DATE
                                                            END OF HEADER
11 19  9 22  6  0  0.0-5.000387318432e-04 1.102762325900e-11 0.000000000000e+00
    6.300000000000e+01-6.315625000000e+01 5.470942172416e-09-2.731940927551e+00
   -3.088265657425e-06 1.666059962008e-02 4.459172487259e-06 5.153734098434e+03
    2.160000000000e+04 1.657754182816e-07 7.177141152852e-01 1.527369022369e-07
    9.106243986356e-01 2.658750000000e+02 1.946900544177e+00-8.398206961887e-09
   -1.007184810433e-10 1.000000000000e+00 2.072000000000e+03 0.000000000000e+00
    2.400000000000e+00 0.000000000000e+00-1.210719347000e-08 6.300000000000e+01
    1.440000000000e+04 4.000000000000e+00
 9 19  9 22  6  0  0.0-3.742473199964e-05-9.663381206337e-12 0.000000000000e+00
    1.900000000000e+02 5.375000000000e+00 4.868774232561e-09 6.769987673961e-01
    1.695007085800e-07 1.413114019670e-03 7.238239049911e-06 5.153589426041e+03
    2.160000000000e+04-4.656612873077e-08-3.033252287796e+00 1.117587089539e-08
    9.529240604721e-01 2.333125000000e+02 1.675918253797e+00-8.189269687382e-09
    8.000333245992e-11 1.000000000000e+00 2.072000000000e+03 0.000000000000e+00
    2.400000000000e+00 0.000000000000e+00 1.396983861923e-09 1.900000000000e+02
    1.440000000000e+04 4.000000000000e+00
27 19  9 22  6  0  0.0-6.350688636303e-05-1.239186531166e-11 0.000000000000e+00
    6.900000000000e+01-8.281250000000e+00 4.369110562421e-09 2.169641105232e-01
   -3.874301910400e-07 7.194753270596e-03 3.665685653687e-06 5.153654642105e+03
    2.160000000000e+04 2.793967723846e-08 1.210098990623e-01 6.891787052155e-08
    9.788355990374e-01 3.147500000000e+02 5.125605929946e-01-8.338918778010e-09
   -1.346484657919e-10 1.000000000000e+00 2.072000000000e+03 0.000000000000e+00
    2.400000000000e+00 0.000000000000e+00 1.396983861923e-09 6.900000000000e+01
    1.440000000000e+04 4.000000000000e+00
30 19  9 22  6  0  0.0-4.583923146129e-05-7.958078640513e-12 0.000000000000e+00
    8.600000000000e+01 3.262500000000e+01 5.060210778090e-09-2.661653564052e+00
    1.683831214905e-06 4.202475887723e-03 8.992850780487e-06 5.153753896713e+03
    2.160000000000e+04-5.215406417847e-08-1.931479542881e+00-2.607703208923e-08
    9.398921053417e-01 1.999375000000e+02-2.900433462376e+00-8.186769583243e-09
   -1.603638226540e-10 1.000000000000e+00 2.072000000000e+03 0.000000000000e+00
    2.400000000000e+00 0.000000000000e+00 3.725290298462e-09 8.600000000000e+01
    1.440000000000e+04 4.000000000000e+00
24 19  9 22  6  0  0.0-2.460088580847e-06-4.547473508865e-13 0.000000000000e+00
    9.600000000000e+01 3.984375000000e+01 5.118070331030e-09-1.685762666964e+00
    1.860782504082e-06 8.696355856955e-03 8.251518011093e-06 5.153697675705e+03
    2.160000000000e+04 1.341104507446e-07-2.025873302052e+00-1.024454832077e-07
    9.377292394782e-01 2.066250000000e+02 6.074674940880e-01-8.151053809823e-09
   -1.032185851827e-10 1.000000000000e+00 2.072000000000e+03 0.000000000000e+00
    2.400000000000e+00 0.000000000000e+00 2.793967723846e-09 9.600000000000e+01
    1.440000000000e+04 4.000000000000e+00
23 19  9 22  6  0  0.0-1.655514352024e-04 2.046363078989e-12 0.000000000000e+00
    9.500000000000e+01 8.250000000000e+00 5.083426030813e-09-1.175779731237e+00
    6.500631570816e-07 1.324093679432e-02 6.917864084244e-06 5.153750553131e+03
    2.160000000000e+04 2.644956111908e-07-3.039485236063e+00 1.937150955200e-07
    9.437336960336e-01 2.329687500000e+02-2.227674673375e+00-8.280344909602e-09
    9.643258823294e-11 1.000000000000e+00 2.072000000000e+03 0.000000000000e+00
    2.400000000000e+00 0.000000000000e+00-2.002343535423e-08 9.500000000000e+01
    1.440000000000e+04 4.000000000000e+00
19 19  9 22  6  0  0.0-2.639242447913e-04 5.229594535194e-12 0.000000000000e+00
    5.600000000000e+01-1.721875000000e+01 4.145886978548e-09 2.898352859322e+00
   -8.530914783478e-07 9.385104640387e-03 4.051253199577e-06 5.153653047562e+03
    2.160000000000e+04 2.104789018631e-07 2.238654148588e-01-1.303851604462e-07
    9.824027345943e-01 3.097812500000e+02 1.504471170120e+00-7.963188841636e-09
   -1.575065607805e-10 1.000000000000e+00 2.072000000000e+03 0.000000000000e+00
    2.400000000000e+00 0.000000000000e+00-1.536682248116e-08 5.600000000000e+01
    1.440000000000e+04 4.000000000000e+00
21 19  9 22  6  0  0.0-1.147296279669e-04 6.366462912410e-12 0.000000000000e+00
    8.500000000000e+01-9.671875000000e+01 4.513759444770e-09 2.467847992392e+00
   -4.904344677925e-06 2.448995551094e-02 7.007271051407e-06 5.153659620285e+03
    2.160000000000e+04 2.924352884293e-07 1.108754353212e+00-2.048909664154e-08
    9.497571661353e-01 2.328750000000e+02-1.411017749822e+00-7.738536626827e-09
   -1.850077063136e-10 1.000000000000e+00 2.072000000000e+03 0.000000000000e+00
    2.400000000000e+00 0.000000000000e+00-1.024454832077e-08 8.500000000000e+01
    1.440000000000e+04 4.000000000000e+00
29 19  9 22  6  0  0.0 9.128078818321e-05-1.023181539495e-11 0.000000000000e+00
    7.000000000000e+01-2.696875000000e+01 4.075526904912e-09 4.354554182832e-01
   -1.478940248489e-06 1.175590208732e-03 4.170462489128e-06 5.153692569733e+03
    2.160000000000e+04-7.636845111847e-08 1.891836312062e-01-1.862645149231e-09
    9.859911248880e-01 3.120625000000e+02 2.015004789175e+00-8.069264688692e-09
   -1.267909956396e-10 1.000000000000e+00 2.072000000000e+03 0.000000000000e+00
    2.400000000000e+00 0.000000000000e+00-9.778887033463e-09 7.000000000000e+01
    1.440000000000e+04 4.000000000000e+00
18 19  9 22  6  0  0.0 8.754525333643e-05 2.842170943040e-12 0.000000000000e+00
    5.400000000000e+01-8.493750000000e+01 4.393397288346e-09-2.241395316209e+00
   -4.241243004799e-06 1.569858042058e-02 6.809830665588e-06 5.153679061890e+03
    2.160000000000e+04 2.644956111908e-07 1.118542116340e+00-1.862645149231e-09
    9.554008539262e-01 2.435937500000e+02 1.434100424679e+00-7.846398262554e-09
   -1.357199389945e-11 1.000000000000e+00 2.072000000000e+03 0.000000000000e+00
    2.400000000000e+00 0.000000000000e+00-5.587935447693e-09 5.400000000000e+01
    1.440000000000e+04 4.000000000000e+00
32 19  9 22  6  0  0.0 6.559584289789e-05 1.352873368887e-11 0.000000000000e+00
    3.700000000000e+01 4.375000000000e-01 4.803414367203e-09 9.467996578004e-01
   -1.378357410431e-07 3.233747207560e-03 7.491558790207e-06 5.153623743057e+03
    2.160000000000e+04-5.401670932770e-08-3.026004981391e+00 3.725290298462e-08
    9.571378906693e-01 2.324062500000e+02-2.504040729039e+00-8.096408676491e-09
   -8.571785620706e-12 1.000000000000e+00 2.072000000000e+03 0.000000000000e+00
    2.400000000000e+00 0.000000000000e+00 4.656612873077e-10 3.700000000000e+01
    1.440000000000e+04 4.000000000000e+00
26 19  9 22  6  0  0.0 4.459684714675e-05 8.753886504564e-12 0.000000000000e+00
    8.700000000000e+01 8.878125000000e+01 4.903418532778e-09 2.114038108184e+00
    4.673376679420e-06 3.904262906872e-03 6.716698408127e-06 5.153676031113e+03
    2.160000000000e+04-4.842877388000e-08-9.518684787657e-01 1.192092895508e-07
    9.499116502845e-01 2.437500000000e+02 1.242075541775e-01-8.329275519187e-09
    2.535819912792e-11 1.000000000000e+00 2.072000000000e+03 0.000000000000e+00
    2.400000000000e+00 0.000000000000e+00 7.450580596924e-09 8.700000000000e+01
    1.440000000000e+04 4.000000000000e+00
17 19  9 22  6  0  0.0 1.301830634475e-04 7.275957614183e-12 0.000000000000e+00
    5.400000000000e+01-1.121875000000e+01 4.173745281815e-09 1.311395154243e-01
   -5.383044481277e-07 1.313468732405e-02 4.662200808525e-06 5.153574676514e+03
    2.160000000000e+04-1.322478055954e-07 1.778608076566e-01 2.421438694000e-08
    9.844669193187e-01 3.045625000000e+02-1.703161170699e+00-8.308917528338e-09
   -1.235765760318e-10 1.000000000000e+00 2.072000000000e+03 0.000000000000e+00
    2.400000000000e+00 0.000000000000e+00-1.117587089539e-08 5.400000000000e+01
    1.440000000000e+04 4.000000000000e+00
28 19  9 22  6  0  0.0 7.614800706506e-04-1.136868377216e-12 0.000000000000e+00
    5.400000000000e+01 5.778125000000e+01 4.241962409047e-09 1.018848152304e+00
    2.808868885040e-06 1.908753195312e-02 6.811693310738e-06 5.153709821701e+03
    2.160000000000e+04-2.961605787277e-07-8.325554842149e-01-3.036111593246e-07
    9.806548020373e-01 2.632187500000e+02-1.457148454711e+00-8.218556621586e-09
    9.286101089098e-12 1.000000000000e+00 2.072000000000e+03 0.000000000000e+00
    3.400000000000e+00 0.000000000000e+00-1.117587089539e-08 5.400000000000e+01
    1.440000000000e+04 4.000000000000e+00
16 19  9 22  6  0  0.0-7.635960355401e-05-3.524291969370e-12 0.000000000000e+00
    1.180000000000e+02 7.762500000000e+01 4.183031382905e-09 1.172010853425e+00
    4.267320036888e-06 1.078185939696e-02 6.942078471184e-06 5.153645601273e+03
    2.160000000000e+04-7.450580596924e-09-8.364440974826e-01 1.285225152969e-07
    9.816811005125e-01 2.560625000000e+02 5.808293182611e-01-8.136767500455e-09
   -8.321775206769e-11 1.000000000000e+00 2.072000000000e+03 0.000000000000e+00
    2.400000000000e+00 0.000000000000e+00-1.071020960808e-08 1.180000000000e+02
    1.440000000000e+04 4.000000000000e+00
15 19  9 22  6  0  0.0-2.852086909115e-04 2.728484105319e-12 0.000000000000e+00
    8.700000000000e+01-9.687500000000e-01 5.514515415988e-09-6.785799931233e-01
    1.993030309677e-07 1.172858406790e-02 6.891787052155e-06 5.153562500000e+03
    2.160000000000e+04 6.891787052155e-08-3.116256368060e+00 2.048909664154e-07
    9.284418718678e-01 2.277500000000e+02 8.102705532152e-01-8.616787495215e-09
    3.357282701443e-11 1.000000000000e+00 2.072000000000e+03 0.000000000000e+00
    2.400000000000e+00 0.000000000000e+00-1.071020960808e-08 8.700000000000e+01
    1.440000000000e+04 4.000000000000e+00
